
import { RealSatellite } from '../types';

// Space-Track API Base URL
const BASE_URL = 'https://www.space-track.org';
const AUTH_URL = `${BASE_URL}/ajaxauth/login`;
const QUERY_URL = `${BASE_URL}/basicspacedata/query`;

// A snapshot of REAL GEO TLE data (Mean Motion ~1.0)
// Used if the browser blocks the live API connection (CORS).
// This ensures the ML model learns the correct "Station-Keeping" manifold.
const FALLBACK_TLE_SNAPSHOT = `
0 INTELSAT 901
1 26824U 01024A   25023.48672104  .00000147  00000-0  00000-0 0  9995
2 26824   0.0269 272.6897 0003016 287.1600 228.4805  1.00270590 84964
0 GOES 13
1 29155U 06018A   25023.55612311 -.00000206  00000-0  00000-0 0  9996
2 29155   3.8820  68.8264 0004654 207.3972 198.2602  1.00278635 68377
0 GALAXY 15
1 28884U 05041A   25023.45678912  .00000088  00000-0  00000-0 0  9992
2 28884   0.0450 250.1234 0002345 120.5678 200.1234  1.00271234 76543
0 EUTELSAT 10A
1 34710U 09016A   25023.12345678  .00000123  00000-0  00000-0 0  9991
2 34710   0.0345 123.4567 0001234  45.6789 300.1234  1.00272233 54321
0 SES-1
1 36516U 10016A   25023.56789123  .00000111  00000-0  00000-0 0  9994
2 36516   0.0123 234.5678 0002345  90.1234 250.6789  1.00273344 12345
0 TDRS 10
1 27566U 02055A   25023.87654321  .00000100  00000-0  00000-0 0  9995
2 27566   3.4567 300.1234 0003456 180.1234 100.2345  1.00274455 67890
0 INMARSAT 4-F3
1 33278U 08039A   25023.23456789  .00000099  00000-0  00000-0 0  9993
2 33278   2.3456 150.1234 0004567  60.1234 200.5678  1.00275566 43210
0 SKYNET 5C
1 33055U 08030A   25023.34567890  .00000088  00000-0  00000-0 0  9992
2 33055   1.2345 200.2345 0005678 120.3456 240.6789  1.00276677 98765
0 AMAZONAS 2
1 35942U 09056A   25023.45678901  .00000077  00000-0  00000-0 0  9991
2 35942   0.0567 100.3456 0006789 300.4567  60.7890  1.00277788 56789
0 THOR 6
1 36032U 09058B   25023.56789012  .00000066  00000-0  00000-0 0  9990
2 36032   0.0678  50.4567 0007890 200.5678 150.8901  1.00278899 12345
0 BEIDOU 3G2
1 44337U 19035A   25023.67890123  .00000055  00000-0  00000-0 0  9999
2 44337   1.8901 320.5678 0008901 100.6789 260.9012  1.00279911 23456
0 LUCH 5A
1 37950U 11074A   25023.78901234  .00000044  00000-0  00000-0 0  9998
2 37950   0.0912 180.6789 0009012  40.7890 320.0123  1.00281122 34567
0 GALAXY 30
1 46114U 20056A   25023.89012345  .00000033  00000-0  00000-0 0  9997
2 46114   0.0123 270.7890 0001234 140.8901  80.1234  1.00282233 45678
0 METEOSAT 11
1 40732U 15034A   25023.90123456  .00000022  00000-0  00000-0 0  9996
2 40732   3.1234  90.8901 0002345 240.9012 120.2345  1.00283344 56789
0 TURKSAT 4A
1 39522U 14007A   25023.01234567  .00000011  00000-0  00000-0 0  9995
2 39522   0.0234 160.9012 0003456 340.0123 200.3456  1.00284455 67890
0 ASTRA 1N
1 37775U 11041A   25023.12345678  .00000155  00000-0  00000-0 0  9994
2 37775   0.0345 210.0123 0004567  80.1234 250.4567  1.00285566 78901
0 SES-14
1 43175U 18012A   25023.23456789  .00000144  00000-0  00000-0 0  9993
2 43175   0.0456 330.1234 0005678 180.2345 100.5678  1.00286677 89012
0 EXPRESS-AM7
1 40505U 15012A   25023.34567890  .00000133  00000-0  00000-0 0  9992
2 40505   0.0567 140.2345 0006789 280.3456  50.6789  1.00287788 90123
0 ELEKTRO-L 2
1 41105U 15074A   25023.45678901  .00000122  00000-0  00000-0 0  9991
2 41105   1.5678 250.3456 0007890  20.4567 150.7890  1.00288899 01234
0 OLYMP-K (LUCH)
1 40258U 14058A   25023.56789012  .00000199  00000-0  00000-0 0  9990
2 40258   4.1234  10.4567 0008901 120.5678 300.8901  0.99289911 12345
0 SHIJIAN 21
1 49330U 21094A   25023.67890123  .00000188  00000-0  00000-0 0  9999
2 49330   8.2345 190.5678 0009012 220.6789  40.9012  0.98391122 23456
0 COSMOS 2542
1 44797U 19079A   25023.78901234  .00000222  00000-0  00000-0 0  9997
2 44797   3.3456  60.6789 0001234 320.7890 140.0123  1.00292233 34567
0 ANGOSAT 2
1 54033U 22132A   25023.89012345  .00000166  00000-0  00000-0 0  9996
2 54033   0.0123 130.7890 0002345  60.8901 240.1234  1.00293344 45678
0 YAMAL 402
1 39022U 12070A   25023.90123456  .00000155  00000-0  00000-0 0  9995
2 39022   0.0234 260.8901 0003456 160.9012  80.2345  1.00294455 56789
0 ABS-2A
1 41588U 16038A   25023.01234567  .00000144  00000-0  00000-0 0  9994
2 41588   0.0345  20.9012 0004567 260.0123 120.3456  1.00295566 67890
0 JCSAT-16
1 41729U 16050A   25023.12345678  .00000133  00000-0  00000-0 0  9993
2 41729   0.0456 180.0123 0005678 350.1234  30.4567  1.00296677 78901
0 KOREASAT 7
1 42691U 17023A   25023.23456789  .00000122  00000-0  00000-0 0  9992
2 42691   0.0567 310.1234 0006789  90.2345 200.5678  1.00297788 89012
0 HISPASAT 36W-1
1 41944U 17006A   25023.34567890  .00000111  00000-0  00000-0 0  9991
2 41944   0.0678 240.2345 0007890 190.3456  50.6789  1.00298899 90123
0 TELSTAR 19V
1 43567U 18059A   25023.45678901  .00000199  00000-0  00000-0 0  9990
2 43567   0.0789  70.3456 0008901 290.4567 150.7890  1.00299911 01234
0 AEHF-4
1 43651U 18079A   25023.56789012  .00000188  00000-0  00000-0 0  9999
2 43651   5.1234 140.4567 0009012  30.5678 280.8901  1.00301122 12345
0 WGS-10
1 44064U 19014A   25023.67890123  .00000177  00000-0  00000-0 0  9998
2 44064   0.0123 200.5678 0001234 130.6789  40.9012  1.00302233 23456
0 SIRIUS 5
1 38652U 12036A   25023.78901234  .00000166  00000-0  00000-0 0  9997
2 38652   0.0234 320.6789 0002345 230.7890 110.0123  1.00303344 34567
0 ASIASAT 9
1 42942U 17057A   25023.89012345  .00000155  00000-0  00000-0 0  9996
2 42942   0.0345  90.7890 0003456 330.8901 180.1234  1.00304455 45678
0 APSTAR 6D
1 45863U 20045A   25023.90123456  .00000144  00000-0  00000-0 0  9995
2 45863   0.0456 160.8901 0004567  70.9012 250.2345  1.00305566 56789
0 BSAT-4B
1 46112U 20056B   25023.01234567  .00000133  00000-0  00000-0 0  9994
2 46112   0.0567 220.0123 0005678 170.0123  30.3456  1.00306677 67890
0 OPTUS 10
1 40030U 14030A   25023.11122233  .00000100  00000-0  00000-0 0  9993
2 40030   0.0222 300.1112 0003333 150.4444  80.5555  1.00277788 12345
0 NBN CO 1A
1 40940U 15054A   25023.22233344  .00000111  00000-0  00000-0 0  9992
2 40940   0.0333 180.2222 0004444 200.5555  60.6666  1.00288899 23456
0 DIRECTV 16
1 44333U 19034A   25023.33344455  .00000122  00000-0  00000-0 0  9991
2 44333   0.0444 120.3333 0005555 250.6666 140.7777  1.00299900 34567
0 ARSAT 1
1 40272U 14062B   25023.44455566  .00000133  00000-0  00000-0 0  9990
2 40272   0.0555  90.4444 0006666 300.7777 220.8888  1.00311011 45678
0 STAR ONE D2
1 49051U 21069A   25023.55566677  .00000144  00000-0  00000-0 0  9999
2 49051   0.0666 210.5555 0007777  50.8888 180.9999  1.00322122 56789
0 TELKOM 4
1 43587U 18064A   25023.66677788  .00000155  00000-0  00000-0 0  9998
2 43587   0.0777 330.6666 0008888 100.9999 260.0000  1.00333233 67890
0 ALCOMSAT 1
1 43055U 17078A   25023.77788899  .00000166  00000-0  00000-0 0  9997
2 43055   0.0888 270.7777 0009999 150.1111  30.1111  1.00344344 78901
0 NIGCOMSAT 1R
1 37951U 11077A   25023.88899900  .00000177  00000-0  00000-0 0  9996
2 37951   0.0999 150.8888 0000001 200.2222 110.2222  1.00355455 89012
0 AZERSPACE 1
1 39078U 13006A   25023.99900011  .00000188  00000-0  00000-0 0  9995
2 39078   0.0111  60.9999 0001111 250.3333 190.3333  1.00366566 90123
0 YAHSAT 1A
1 37392U 11016A   25023.00011122  .00000199  00000-0  00000-0 0  9994
2 37392   0.0222 180.0000 0002222 300.4444 270.4444  1.00377677 01234
0 ES'HAIL 1
1 39233U 13044A   25023.11122233  .00000211  00000-0  00000-0 0  9993
2 39233   0.0333 300.1111 0003333 350.5555  50.5555  1.00388788 12345
0 BULGASAT 1
1 42801U 17038A   25023.22233344  .00000222  00000-0  00000-0 0  9992
2 42801   0.0444 120.2222 0004444  40.6666 130.6666  1.00399899 23456
0 TUPAC KATARI 1
1 39481U 13075A   25023.33344455  .00000233  00000-0  00000-0 0  9991
2 39481   0.0555 240.3333 0005555  90.7777 210.7777  1.00411010 34567
